CCSDS_OMM_VERS = 2.0
CREATION_DATE  = 
ORIGINATOR     = 

OBJECT_NAME    = STARLINK-35732
OBJECT_ID      = 2025-294H
CENTER_NAME    = EARTH
REF_FRAME      = TEME
TIME_SYSTEM    = UTC
MEAN_ELEMENT_THEORY = SGP/SGP4

EPOCH          = 2026-01-05T12:04:25.223808
MEAN_MOTION    = 15.50661262
ECCENTRICITY   = .00030436
INCLINATION    = 43.0033
RA_OF_ASC_NODE = 39.4233
ARG_OF_PERICENTER = 272.5981
MEAN_ANOMALY   = 87.4531

EPHEMERIS_TYPE = 0
CLASSIFICATION_TYPE = U
NORAD_CAT_ID   = 67037
ELEMENT_SET_NO = 999
REV_AT_EPOCH   = 508
BSTAR          = .14987859E-2
MEAN_MOTION_DOT = .88858E-3
MEAN_MOTION_DDOT = 0

CCSDS_OMM_VERS = 2.0
CREATION_DATE  = 
ORIGINATOR     = 

OBJECT_NAME    = STARLINK-35775
OBJECT_ID      = 2025-294J
CENTER_NAME    = EARTH
REF_FRAME      = TEME
TIME_SYSTEM    = UTC
MEAN_ELEMENT_THEORY = SGP/SGP4

EPOCH          = 2026-01-07T20:00:01.999872
MEAN_MOTION    = 15.40709289
ECCENTRICITY   = .0002157
INCLINATION    = 43.0008
RA_OF_ASC_NODE = 26.0347
ARG_OF_PERICENTER = 250.0136
MEAN_ANOMALY   = 74.4566

EPHEMERIS_TYPE = 0
CLASSIFICATION_TYPE = U
NORAD_CAT_ID   = 67038
ELEMENT_SET_NO = 999
REV_AT_EPOCH   = 439
BSTAR          = .11168E-2
MEAN_MOTION_DOT = .4665E-3
MEAN_MOTION_DDOT = 0

CCSDS_OMM_VERS = 2.0
CREATION_DATE  = 
ORIGINATOR     = 

OBJECT_NAME    = STARLINK-35705
OBJECT_ID      = 2025-294K
CENTER_NAME    = EARTH
REF_FRAME      = TEME
TIME_SYSTEM    = UTC
MEAN_ELEMENT_THEORY = SGP/SGP4

EPOCH          = 2026-01-07T18:09:27.991872
MEAN_MOTION    = 15.50630768
ECCENTRICITY   = .000165
INCLINATION    = 43.0015
RA_OF_ASC_NODE = 26.2303
ARG_OF_PERICENTER = 273.8377
MEAN_ANOMALY   = 86.2295

EPHEMERIS_TYPE = 0
CLASSIFICATION_TYPE = U
NORAD_CAT_ID   = 67039
ELEMENT_SET_NO = 999
REV_AT_EPOCH   = 543
BSTAR          = .14676E-2
MEAN_MOTION_DOT = .86877E-3
MEAN_MOTION_DDOT = 0

CCSDS_OMM_VERS = 2.0
CREATION_DATE  = 
ORIGINATOR     = 

OBJECT_NAME    = STARLINK-35786
OBJECT_ID      = 2025-294L
CENTER_NAME    = EARTH
REF_FRAME      = TEME
TIME_SYSTEM    = UTC
MEAN_ELEMENT_THEORY = SGP/SGP4

EPOCH          = 2026-01-07T12:45:02.994624
MEAN_MOTION    = 15.40735389
ECCENTRICITY   = .000147
INCLINATION    = 43.0019
RA_OF_ASC_NODE = 27.9868
ARG_OF_PERICENTER = 249.6186
MEAN_ANOMALY   = 110.4513

EPHEMERIS_TYPE = 0
CLASSIFICATION_TYPE = U
NORAD_CAT_ID   = 67040
ELEMENT_SET_NO = 999
REV_AT_EPOCH   = 539
BSTAR          = .89768E-3
MEAN_MOTION_DOT = .37423E-3
MEAN_MOTION_DDOT = 0

CCSDS_OMM_VERS = 2.0
CREATION_DATE  = 
ORIGINATOR     = 

OBJECT_NAME    = STARLINK-35765
OBJECT_ID      = 2025-294M
CENTER_NAME    = EARTH
REF_FRAME      = TEME
TIME_SYSTEM    = UTC
MEAN_ELEMENT_THEORY = SGP/SGP4

EPOCH          = 2026-01-07T18:09:33.904224
MEAN_MOTION    = 15.48941579
ECCENTRICITY   = .0002762
INCLINATION    = 42.9991
RA_OF_ASC_NODE = 26.2302
ARG_OF_PERICENTER = 3.1979
MEAN_ANOMALY   = 356.8898

EPHEMERIS_TYPE = 0
CLASSIFICATION_TYPE = U
NORAD_CAT_ID   = 67041
ELEMENT_SET_NO = 999
REV_AT_EPOCH   = 543
BSTAR          = -.24835E-2
MEAN_MOTION_DOT = -.135483E-2
MEAN_MOTION_DDOT = 0

CCSDS_OMM_VERS = 2.0
CREATION_DATE  = 
ORIGINATOR     = 

OBJECT_NAME    = STARLINK-35773
OBJECT_ID      = 2025-294N
CENTER_NAME    = EARTH
REF_FRAME      = TEME
TIME_SYSTEM    = UTC
MEAN_ELEMENT_THEORY = SGP/SGP4

EPOCH          = 2026-01-07T20:00:01.999872
MEAN_MOTION    = 15.40688759
ECCENTRICITY   = .0001076
INCLINATION    = 43.0008
RA_OF_ASC_NODE = 26.1549
ARG_OF_PERICENTER = 263.8872
MEAN_ANOMALY   = 10.9137

EPHEMERIS_TYPE = 0
CLASSIFICATION_TYPE = U
NORAD_CAT_ID   = 67042
ELEMENT_SET_NO = 999
REV_AT_EPOCH   = 448
BSTAR          = .66404E-3
MEAN_MOTION_DOT = .27524E-3
MEAN_MOTION_DDOT = 0

CCSDS_OMM_VERS = 2.0
CREATION_DATE  = 
ORIGINATOR     = 

OBJECT_NAME    = STARLINK-35901
OBJECT_ID      = 2025-294P
CENTER_NAME    = EARTH
REF_FRAME      = TEME
TIME_SYSTEM    = UTC
MEAN_ELEMENT_THEORY = SGP/SGP4

EPOCH          = 2026-01-07T20:00:01.999872
MEAN_MOTION    = 15.40686015
ECCENTRICITY   = .0001243
INCLINATION    = 43.0006
RA_OF_ASC_NODE = 25.9429
ARG_OF_PERICENTER = 277.5638
MEAN_ANOMALY   = 84.3302

EPHEMERIS_TYPE = 0
CLASSIFICATION_TYPE = U
NORAD_CAT_ID   = 67043
ELEMENT_SET_NO = 999
REV_AT_EPOCH   = 448
BSTAR          = .639E-3
MEAN_MOTION_DOT = .26469E-3
MEAN_MOTION_DDOT = 0

CCSDS_OMM_VERS = 2.0
CREATION_DATE  = 
ORIGINATOR     = 

OBJECT_NAME    = STARLINK-35884
OBJECT_ID      = 2025-294Q
CENTER_NAME    = EARTH
REF_FRAME      = TEME
TIME_SYSTEM    = UTC
MEAN_ELEMENT_THEORY = SGP/SGP4

EPOCH          = 2026-01-07T12:57:57.207744
MEAN_MOTION    = 15.40737277
ECCENTRICITY   = .0000924
INCLINATION    = 43.0024
RA_OF_ASC_NODE = 28.0540
ARG_OF_PERICENTER = 257.2739
MEAN_ANOMALY   = 102.8014

EPHEMERIS_TYPE = 0
CLASSIFICATION_TYPE = U
NORAD_CAT_ID   = 67044
ELEMENT_SET_NO = 999
REV_AT_EPOCH   = 539
BSTAR          = .8808E-3
MEAN_MOTION_DOT = .36712E-3
MEAN_MOTION_DDOT = 0

CCSDS_OMM_VERS = 2.0
CREATION_DATE  = 
ORIGINATOR     = 

OBJECT_NAME    = STARLINK-35891
OBJECT_ID      = 2025-294R
CENTER_NAME    = EARTH
REF_FRAME      = TEME
TIME_SYSTEM    = UTC
MEAN_ELEMENT_THEORY = SGP/SGP4

EPOCH          = 2026-01-07T20:00:01.999872
MEAN_MOTION    = 15.40661908
ECCENTRICITY   = .0000995
INCLINATION    = 43.0008
RA_OF_ASC_NODE = 25.8516
ARG_OF_PERICENTER = 269.6054
MEAN_ANOMALY   = 129.6483

EPHEMERIS_TYPE = 0
CLASSIFICATION_TYPE = U
NORAD_CAT_ID   = 67045
ELEMENT_SET_NO = 999
REV_AT_EPOCH   = 439
BSTAR          = .83134E-3
MEAN_MOTION_DOT = .34536E-3
MEAN_MOTION_DDOT = 0

CCSDS_OMM_VERS = 2.0
CREATION_DATE  = 
ORIGINATOR     = 

OBJECT_NAME    = STARLINK-35721
OBJECT_ID      = 2025-294S
CENTER_NAME    = EARTH
REF_FRAME      = TEME
TIME_SYSTEM    = UTC
MEAN_ELEMENT_THEORY = SGP/SGP4

EPOCH          = 2026-01-07T20:00:01.999872
MEAN_MOTION    = 15.43470951
ECCENTRICITY   = .0001891
INCLINATION    = 43.0009
RA_OF_ASC_NODE = 25.8003
ARG_OF_PERICENTER = 262.6514
MEAN_ANOMALY   = 158.2571

EPHEMERIS_TYPE = 0
CLASSIFICATION_TYPE = U
NORAD_CAT_ID   = 67046
ELEMENT_SET_NO = 999
REV_AT_EPOCH   = 448
BSTAR          = -.44972E-1
MEAN_MOTION_DOT = -.1853865E-1
MEAN_MOTION_DDOT = 0

CCSDS_OMM_VERS = 2.0
CREATION_DATE  = 
ORIGINATOR     = 

OBJECT_NAME    = STARLINK-35779
OBJECT_ID      = 2025-294T
CENTER_NAME    = EARTH
REF_FRAME      = TEME
TIME_SYSTEM    = UTC
MEAN_ELEMENT_THEORY = SGP/SGP4

EPOCH          = 2026-01-07T20:00:01.999872
MEAN_MOTION    = 15.40682256
ECCENTRICITY   = .0001174
INCLINATION    = 43.0010
RA_OF_ASC_NODE = 26.1240
ARG_OF_PERICENTER = 271.3908
MEAN_ANOMALY   = 15.8602

EPHEMERIS_TYPE = 0
CLASSIFICATION_TYPE = U
NORAD_CAT_ID   = 67047
ELEMENT_SET_NO = 999
REV_AT_EPOCH   = 428
BSTAR          = .7208E-3
MEAN_MOTION_DOT = .29906E-3
MEAN_MOTION_DDOT = 0

CCSDS_OMM_VERS = 2.0
CREATION_DATE  = 
ORIGINATOR     = 

OBJECT_NAME    = STARLINK-35905
OBJECT_ID      = 2025-294U
CENTER_NAME    = EARTH
REF_FRAME      = TEME
TIME_SYSTEM    = UTC
MEAN_ELEMENT_THEORY = SGP/SGP4

EPOCH          = 2026-01-07T07:58:32.645856
MEAN_MOTION    = 15.40714272
ECCENTRICITY   = .0000776
INCLINATION    = 42.9979
RA_OF_ASC_NODE = 29.0697
ARG_OF_PERICENTER = 245.6498
MEAN_ANOMALY   = 114.4277

EPHEMERIS_TYPE = 0
CLASSIFICATION_TYPE = U
NORAD_CAT_ID   = 67048
ELEMENT_SET_NO = 999
REV_AT_EPOCH   = 536
BSTAR          = .94776E-3
MEAN_MOTION_DOT = .3951E-3
MEAN_MOTION_DDOT = 0

