STARLINK-35732          
1 67037U 25294H   26005.50306972  .00088858  00000+0  14988-2 0  9998
2 67037  43.0033  39.4233 0003043 272.5981  87.4531 15.50661262  5081
STARLINK-35775          
1 67038U 25294J   26007.83335648  .00046650  00000+0  11168-2 0  9990
2 67038  43.0008  26.0347 0002157 250.0136  74.4566 15.40709289  4398
STARLINK-35705          
1 67039U 25294K   26007.75657398  .00086877  00000+0  14676-2 0  9993
2 67039  43.0015  26.2303 0001650 273.8377  86.2295 15.50630768  5430
STARLINK-35786          
1 67040U 25294L   26007.53128466  .00037423  00000+0  89768-3 0  9998
2 67040  43.0019  27.9868 0001470 249.6186 110.4513 15.40735389  5391
STARLINK-35765          
1 67041U 25294M   26007.75664241 -.00135483  00000+0 -24835-2 0  9999
2 67041  42.9991  26.2302 0002762   3.1979 356.8898 15.48941579  5437
STARLINK-35773          
1 67042U 25294N   26007.83335648  .00027524  00000+0  66404-3 0  9998
2 67042  43.0008  26.1549 0001076 263.8872  10.9137 15.40688759  4483
STARLINK-35901          
1 67043U 25294P   26007.83335648  .00026469  00000+0  63900-3 0  9994
2 67043  43.0006  25.9429 0001243 277.5638  84.3302 15.40686015  4486
STARLINK-35884          
1 67044U 25294Q   26007.54024546  .00036712  00000+0  88080-3 0  9993
2 67044  43.0024  28.0540 0000924 257.2739 102.8014 15.40737277  5391
STARLINK-35891          
1 67045U 25294R   26007.83335648  .00034536  00000+0  83134-3 0  9991
2 67045  43.0008  25.8516 0000995 269.6054 129.6483 15.40661908  4390
STARLINK-35721          
1 67046U 25294S   26007.83335648 -.01853865  00000+0 -44972-1 0  9994
2 67046  43.0009  25.8003 0001891 262.6514 158.2571 15.43470951  4488
STARLINK-35779          
1 67047U 25294T   26007.83335648  .00029906  00000+0  72080-3 0  9996
2 67047  43.0010  26.1240 0001174 271.3908  15.8602 15.40682256  4287
STARLINK-35905          
1 67048U 25294U   26007.33232229  .00039510  00000+0  94776-3 0  9991
2 67048  42.9979  29.0697 0000776 245.6498 114.4277 15.40714272  5361
